[
  "TORO                    \r\n1 60530U 24149BQ  26201.20422168  .00000943  00000+0  87946-4 0  9993\r\n2 60530  97.6769 275.2555 0001271 109.8235 250.3123 14.96524313104896\r\n",
  "TORO3                   \r\n1 68481U 26067BT  26201.36048044  .00000555  00000+0  60054-4 0  9991\r\n2 68481  97.7691 159.2564 0002543 171.8445 188.2816 14.92170949 16674\r\n",
  "SATORO-T3               \r\n1 64589U 25135BP  26201.57471717  .00000776  00000+0  77261-4 0  9994\r\n2 64589  97.7740 315.7675 0004260 205.2859 154.8153 14.94445516 58895\r\n",
  "GEMINI-POLLUX           \r\n1 69000U 26100W   26201.25209861  .00001183  00000+0  12113-3 0  9991\r\n2 69000  97.7284  98.1110 0002318 104.0920 256.0557 14.92334489 11632\r\n",
  "FORMOSAT-2 (ROCSAT 2)   \r\n1 28254U 04018A   26201.40189542 -.00000256  00000+0 -14195-3 0  9995\r\n2 28254  98.8458 167.8645 0001252 185.8320 336.7928 14.01249698133402\r\n",
  "FORMOSAT-3 FM6          \r\n1 29047U 06011A   26201.36757356  .00000157  00000+0  73806-4 0  9993\r\n2 29047  71.9754 243.3300 0048374 182.7136 177.3747 14.31421163 59158\r\n",
  "FORMOSAT-3 FM1          \r\n1 29048U 06011B   26201.29172511  .00000195  00000+0  88327-4 0  9996\r\n2 29048  71.9656 151.8667 0041093 145.2120 215.1717 14.31409799 61519\r\n",
  "FORMOSAT-3 FM5          \r\n1 29049U 06011C   26200.78254229  .00000154  00000+0  73220-4 0  9998\r\n2 29049  72.0200 337.2242 0033073 152.7495 207.5388 14.31426144 57330\r\n",
  "FORMOSAT-3 FM3          \r\n1 29050U 06011D   26201.39364411  .00000477  00000+0  93180-4 0  9998\r\n2 29050  72.0114 240.3611 0044605 226.2961 133.4498 14.67021093 81247\r\n",
  "FORMOSAT-3 FM4          \r\n1 29051U 06011E   26201.36854429  .00000153  00000+0  71497-4 0  9997\r\n2 29051  72.0016 233.5046 0064933  31.4383 329.0610 14.31559663 60016\r\n",
  "FORMOSAT-3 FM2          \r\n1 29052U 06011F   26201.57531525  .00000195  00000+0  87998-4 0  9999\r\n2 29052  72.0340 314.0002 0037211 102.8655 257.6645 14.31641426 57567\r\n",
  "PACE                    \r\n1 40022U 14033N   26201.50626680  .00003130  00000+0  19114-3 0  9998\r\n2 40022  98.1251 208.4322 0007957 103.7850 256.4265 15.11099147658062\r\n",
  "FORMOSAT-5              \r\n1 42920U 17049A   26201.56892267  .00000030  00000+0  18777-4 0  9990\r\n2 42920  98.2242 276.1353 0010954 347.0788  13.0125 14.50908695471516\r\n",
  "FORMOSAT 7-3            \r\n1 44343U 19036E   26201.42385055  .00002578  00000+0  13383-3 0  9992\r\n2 44343  23.9996 309.7487 0000467   3.6650 356.3857 15.10017218388274\r\n",
  "FORMOSAT 7-1            \r\n1 44349U 19036L   26201.25084625  .00001465  00000+0  99532-4 0  9993\r\n2 44349  23.9964 169.4642 0000725 180.7169 179.3331 14.96623424389612\r\n",
  "FORMOSAT 7-4            \r\n1 44350U 19036M   26201.27344446  .00001339  00000+0  88703-4 0  9995\r\n2 44350  23.9967 231.4240 0000945 199.7281 160.3183 14.96620154389038\r\n",
  "FORMOSAT 7-2            \r\n1 44351U 19036N   26201.56250152  .00001420  00000+0  95716-4 0  9991\r\n2 44351  23.9981 283.7918 0000411 181.8417 178.2082 14.96621411388591\r\n",
  "FORMOSAT 7-6            \r\n1 44353U 19036Q   26201.02869448  .00001410  00000+0  94800-4 0  9990\r\n2 44353  23.9974 108.1952 0001336 119.5138 240.5497 14.96623453386744\r\n",
  "FORMOSAT 7-5            \r\n1 44358U 19036V   26201.27289930  .00001591  00000+0  11038-3 0  9995\r\n2 44358  23.9994  45.3042 0000177 157.3665 202.6844 14.96604781387312\r\n",
  "FORMOSAT-7R (TRITON)    \r\n1 58017U 23155B   26201.18690667  .00000816  00000+0  87766-4 0  9993\r\n2 58017  97.8348 282.3497 0001249  48.4053 311.7272 14.91202642151143\r\n",
  "NIGHTJAR                \r\n1 60535U 24149BV  26201.16570597  .00002398  00000+0  20177-3 0  9991\r\n2 60535  97.6848 277.4110 0002783  86.3353 273.8189 14.99193161147816\r\n",
  "IRIS-F3                 \r\n1 62619U 25009L   26201.20837502  .00004290  00000+0  16254-3 0  9993\r\n2 62619  97.4034 281.7989 0006163 191.1803 168.9300 15.27427154 83866\r\n",
  "IRIS-F2                 \r\n1 62684U 25009CD  26201.48764377  .00008337  00000+0  31278-3 0  9993\r\n2 62684  97.3874 280.9387 0004872 213.8019 146.2911 15.27466433141548\r\n",
  "FORMOSAT-8A             \r\n1 66666U 25276A   26201.21014802  .00000944  00000+0  79060-4 0  9993\r\n2 66666  97.6546 274.9557 0006236 114.2442 245.9434 15.00762167 35018\r\n",
  "LILIUM-2                \r\n1 66679U 25276P   26201.19760427  .00001213  00000+0  62722-4 0  9992\r\n2 66679  97.4140 273.5800 0004529 243.6605 116.4164 15.18110926 35401\r\n",
  "BLACK KITE-1            \r\n1 66741U 25276CD  26201.14188074  .00004353  00000+0  19927-3 0  9995\r\n2 66741  97.4225 274.3836 0004692 218.7317 141.3582 15.21018963 32733\r\n",
  "T.MICROSAT-1            \r\n1 66766U 25276DE  26201.49692018  .00003227  00000+0  14808-3 0  9990\r\n2 66766  97.4144 274.7083 0002247  96.1320 264.0172 15.21129831 35507\r\n",
  "LILIUM-3                \r\n1 66770U 25276DJ  26201.14928244  .00001529  00000+0  74894-4 0  9995\r\n2 66770  97.4230 274.3629 0003318 118.8079 241.3490 15.19657282 35439\r\n",
  "T.MICROSAT-2            \r\n1 68433U 26067T   26201.35920173  .00003032  00000+0  15385-3 0  9998\r\n2 68433  97.4586 159.2339 0004245 324.5012  35.5938 15.17677957 16969\r\n",
  "PARUS-6U1               \r\n1 68456U 26067AS  26201.35212275  .00003226  00000+0  16278-3 0  9997\r\n2 68456  97.4570 159.2166 0004203 327.7406  32.3570 15.17824966 16962\r\n",
  "BLACK KITE-2            \r\n1 68474U 26067BL  26201.33045928  .00001052  00000+0  10736-3 0  9992\r\n2 68474  97.7565 159.1342 0003550 112.0029 248.1568 14.92713046 16674\r\n",
  "PEARL-1B                \r\n1 68980U 26100A   26201.27183367  .00001132  00000+0  12097-3 0  9996\r\n2 68980  97.7324  97.9649 0008440  46.4162 313.7755 14.90677078 11617\r\n",
  "PEARL-1A                \r\n1 68990U 26100L   26201.45153604  .00000851  00000+0  91459-4 0  9995\r\n2 68990  97.7272  98.1452 0006801  61.6831 298.5072 14.91065897 11653\r\n"
]